{
"type": "FeatureCollection",
"name": "testing",
"crs": { "type": "name", "properties": { "name": "urn:ogc:def:crs:OGC:1.3:CRS84" } },
"xy_coordinate_resolution": 1e-10,
"bbox": [ 124.2826409631, 8.3443863595, 68.2767265000, 125.1893020744, 9.0492105264, 953.9167265000 ],                             
"features": [
{ "type": "Feature", "properties": { "OBJECTID": 1, "newNAME OF BRIDGE": "Sambulawan Bridge", "newMUNICIPALITY": "El Salvador City" }, "bbox": [ 124.5302479082, 8.5075048037, 92.2900265, 124.5302479082, 8.5075048037, 92.2900265 ], "geometry": { "type": "Point", "coordinates": [ 124.5302479082, 8.5075048037, 92.2900265 ] } },
{ "type": "Feature", "properties": { "OBJECTID": 3, "newNAME OF BRIDGE": "Samboyaan-Bridge", "newMUNICIPALITY": "Manticao" }, "bbox": [ 124.3077123522, 8.3659245255, 239.7467265, 124.3077123522, 8.3659245255, 239.7467265 ], "geometry": { "type": "Point", "coordinates": [ 124.3077123522, 8.3659245255, 239.7467265 ] } },
{ "type": "Feature", "properties": { "OBJECTID": 4, "newNAME OF BRIDGE": "Pagawan Bridge", "newMUNICIPALITY": "Manticao" }, "bbox": [ 124.3006422972, 8.3797246375, 108.6233265, 124.3006422972, 8.3797246375, 108.6233265 ], "geometry": { "type": "Point", "coordinates": [ 124.3006422972, 8.3797246375, 108.6233265 ] } },
{ "type": "Feature", "properties": { "OBJECTID": 5, "newNAME OF BRIDGE": "Pagawan Bridge", "newMUNICIPALITY": "Manticao" }, "bbox": [ 124.3033928532, 8.3915480815, 94.4467265, 124.3033928532, 8.3915480815, 94.4467265 ], "geometry": { "type": "Point", "coordinates": [ 124.3033928532, 8.3915480815, 94.4467265 ] } },
{ "type": "Feature", "properties": { "OBJECTID": 6, "newNAME OF BRIDGE": "Talacogon Bridge", "newMUNICIPALITY": "Lugait" }, "bbox": [ 124.2826409631, 8.3459875254, 91.3267265, 124.2826409631, 8.3459875254, 91.3267265 ], "geometry": { "type": "Point", "coordinates": [ 124.2826409631, 8.3459875254, 91.3267265 ] } },
{ "type": "Feature", "properties": { "OBJECTID": 12, "newNAME OF BRIDGE": "Magpait Bridge", "newMUNICIPALITY": "Manticao" }, "bbox": [ 124.3440084631, 8.3609968585, 138.7567265, 124.3440084631, 8.3609968585, 138.7567265 ], "geometry": { "type": "Point", "coordinates": [ 124.3440084631, 8.3609968585, 138.7567265 ] } },
{ "type": "Feature", "properties": { "OBJECTID": 13, "newNAME OF BRIDGE": "Tuod bridge", "newMUNICIPALITY": "Manticao" }, "bbox": [ 124.3553265191, 8.3443863595, 184.3700265, 124.3553265191, 8.3443863595, 184.3700265 ], "geometry": { "type": "Point", "coordinates": [ 124.3553265191, 8.3443863595, 184.3700265 ] } },
{ "type": "Feature", "properties": { "OBJECTID": 14, "newNAME OF BRIDGE": "Hagnaya Bridge l", "newMUNICIPALITY": "Naawan" }, "bbox": [ 124.2870947972, 8.3679525814, 106.6700265, 124.2870947972, 8.3679525814, 106.6700265 ], "geometry": { "type": "Point", "coordinates": [ 124.2870947972, 8.3679525814, 106.6700265 ] } },
{ "type": "Feature", "properties": { "OBJECTID": 15, "newNAME OF BRIDGE": "Dimalusi Bridge", "newMUNICIPALITY": "Lugait" }, "bbox": [ 124.2868017411, 8.3524898584, 114.4067265, 124.2868017411, 8.3524898584, 114.4067265 ], "geometry": { "type": "Point", "coordinates": [ 124.2868017411, 8.3524898584, 114.4067265 ] } },
{ "type": "Feature", "properties": { "OBJECTID": 17, "newNAME OF BRIDGE": "Tagbalogo Bridge", "newMUNICIPALITY": "Naawan" }, "bbox": [ 124.3315605742, 8.4118957485, 119.9967265, 124.3315605742, 8.4118957485, 119.9967265 ], "geometry": { "type": "Point", "coordinates": [ 124.3315605742, 8.4118957485, 119.9967265 ] } },
{ "type": "Feature", "properties": { "OBJECTID": 18, "newNAME OF BRIDGE": "Panimalon Bridge", "newMUNICIPALITY": "Manticao" }, "bbox": [ 124.3270688532, 8.3798741365, 107.3200265, 124.3270688532, 8.3798741365, 107.3200265 ], "geometry": { "type": "Point", "coordinates": [ 124.3270688532, 8.3798741365, 107.3200265 ] } },
{ "type": "Feature", "properties": { "OBJECTID": 20, "newNAME OF BRIDGE": "Apas Bridge", "newMUNICIPALITY": "Initao" }, "bbox": [ 124.3270854072, 8.4902498586, 89.7733265, 124.3270854072, 8.4902498586, 89.7733265 ], "geometry": { "type": "Point", "coordinates": [ 124.3270854072, 8.4902498586, 89.7733265 ] } },
{ "type": "Feature", "properties": { "OBJECTID": 21, "newNAME OF BRIDGE": "Kalabaylabay Bridge", "newMUNICIPALITY": "El Salvador City" }, "bbox": [ 124.4795062972, 8.5342775257, 110.4433265, 124.4795062972, 8.5342775257, 110.4433265 ], "geometry": { "type": "Point", "coordinates": [ 124.4795062972, 8.5342775257, 110.4433265 ] } },
{ "type": "Feature", "properties": { "OBJECTID": 22, "newNAME OF BRIDGE": "Calanawan bridge", "newMUNICIPALITY": "Alubijid" }, "bbox": [ 124.4021006862, 8.4651626926, 148.4567265, 124.4021006862, 8.4651626926, 148.4567265 ], "geometry": { "type": "Point", "coordinates": [ 124.4021006862, 8.4651626926, 148.4567265 ] } },
{ "type": "Feature", "properties": { "OBJECTID": 23, "newNAME OF BRIDGE": "Sungay-Bridge lI", "newMUNICIPALITY": "Alubijid" }, "bbox": [ 124.4046797972, 8.4542711366, 191.8233265, 124.4046797972, 8.4542711366, 191.8233265 ], "geometry": { "type": "Point", "coordinates": [ 124.4046797972, 8.4542711366, 191.8233265 ] } },
{ "type": "Feature", "properties": { "OBJECTID": 24, "newNAME OF BRIDGE": "Sungay-Bridge l", "newMUNICIPALITY": "Alubijid" }, "bbox": [ 124.4046329642, 8.4506690256, 192.2867265, 124.4046329642, 8.4506690256, 192.2867265 ], "geometry": { "type": "Point", "coordinates": [ 124.4046329642, 8.4506690256, 192.2867265 ] } },
{ "type": "Feature", "properties": { "OBJECTID": 25, "newNAME OF BRIDGE": "Domanog Bridge", "newMUNICIPALITY": "Alubijid" }, "bbox": [ 124.4338687422, 8.5345737486, 115.3067265, 124.4338687422, 8.5345737486, 115.3067265 ], "geometry": { "type": "Point", "coordinates": [ 124.4338687422, 8.5345737486, 115.3067265 ] } },
{ "type": "Feature", "properties": { "OBJECTID": 26, "newNAME OF BRIDGE": "Tangcub Bridge", "newMUNICIPALITY": "Libertad" }, "bbox": [ 124.3731232972, 8.5309415256, 159.7700265, 124.3731232972, 8.5309415256, 159.7700265 ], "geometry": { "type": "Point", "coordinates": [ 124.3731232972, 8.5309415256, 159.7700265 ] } },
{ "type": "Feature", "properties": { "OBJECTID": 29, "newNAME OF BRIDGE": "Cabalantian Bridge", "newMUNICIPALITY": "Manticao" }, "bbox": [ 124.3287224631, 8.3609801925, 121.9600265, 124.3287224631, 8.3609801925, 121.9600265 ], "geometry": { "type": "Point", "coordinates": [ 124.3287224631, 8.3609801925, 121.9600265 ] } },
{ "type": "Feature", "properties": { "OBJECTID": 32, "newNAME OF BRIDGE": "Patag Bridge", "newMUNICIPALITY": "Naawan" }, "bbox": [ 124.3208739642, 8.4269696925, 76.6100265, 124.3208739642, 8.4269696925, 76.6100265 ], "geometry": { "type": "Point", "coordinates": [ 124.3208739642, 8.4269696925, 76.6100265 ] } },
{ "type": "Feature", "properties": { "OBJECTID": 34, "newNAME OF BRIDGE": "Tuburan Bridge", "newMUNICIPALITY": "Naawan" }, "bbox": [ 124.3098156302, 8.4486835255, 97.1800265, 124.3098156302, 8.4486835255, 97.1800265 ], "geometry": { "type": "Point", "coordinates": [ 124.3098156302, 8.4486835255, 97.1800265 ] } },
{ "type": "Feature", "properties": { "OBJECTID": 35, "newNAME OF BRIDGE": "Marog Bridge", "newMUNICIPALITY": "Initao" }, "bbox": [ 124.3276759632, 8.4668878585, 104.7400265, 124.3276759632, 8.4668878585, 104.7400265 ], "geometry": { "type": "Point", "coordinates": [ 124.3276759632, 8.4668878585, 104.7400265 ] } },
{ "type": "Feature", "properties": { "OBJECTID": 36, "newNAME OF BRIDGE": "Aluna Bridge", "newMUNICIPALITY": "Initao" }, "bbox": [ 124.3212774632, 8.4645170255, 95.9800265, 124.3212774632, 8.4645170255, 95.9800265 ], "geometry": { "type": "Point", "coordinates": [ 124.3212774632, 8.4645170255, 95.9800265 ] } },
{ "type": "Feature", "properties": { "OBJECTID": 37, "newNAME OF BRIDGE": "Aluna Bridge ll", "newMUNICIPALITY": "Initao" }, "bbox": [ 124.3157577972, 8.4660798595, 84.5800265, 124.3157577972, 8.4660798595, 84.5800265 ], "geometry": { "type": "Point", "coordinates": [ 124.3157577972, 8.4660798595, 84.5800265 ] } },
{ "type": "Feature", "properties": { "OBJECTID": 38, "newNAME OF BRIDGE": "Malapuy-on Bridge", "newMUNICIPALITY": "Initao" }, "bbox": [ 124.3447906302, 8.4922533596, 95.3500265, 124.3447906302, 8.4922533596, 95.3500265 ], "geometry": { "type": "Point", "coordinates": [ 124.3447906302, 8.4922533596, 95.3500265 ] } },
{ "type": "Feature", "properties": { "OBJECTID": 39, "newNAME OF BRIDGE": "Lubluban Bridge", "newMUNICIPALITY": "Libertad" }, "bbox": [ 124.3506949642, 8.5259720256, 152.5800265, 124.3506949642, 8.5259720256, 152.5800265 ], "geometry": { "type": "Point", "coordinates": [ 124.3506949642, 8.5259720256, 152.5800265 ] } },
{ "type": "Feature", "properties": { "OBJECTID": 40, "newNAME OF BRIDGE": "Cabalantian Bridge", "newMUNICIPALITY": "Manticao" }, "bbox": [ 124.3531956302, 8.3923093595, 229.2400265, 124.3531956302, 8.3923093595, 229.2400265 ], "geometry": { "type": "Point", "coordinates": [ 124.3531956302, 8.3923093595, 229.2400265 ] } },
{ "type": "Feature", "properties": { "OBJECTID": 42, "newNAME OF BRIDGE": "Lubilan Bridge l", "newMUNICIPALITY": "Naawan" }, "bbox": [ 124.3835114632, 8.3996070265, 345.0000265, 124.3835114632, 8.3996070265, 345.0000265 ], "geometry": { "type": "Point", "coordinates": [ 124.3835114632, 8.3996070265, 345.0000265 ] } },
{ "type": "Feature", "properties": { "OBJECTID": 43, "newNAME OF BRIDGE": "Lubilan Bridge ll", "newMUNICIPALITY": "Naawan" }, "bbox": [ 124.3915502962, 8.4068250265, 384.0100265, 124.3915502962, 8.4068250265, 384.0100265 ], "geometry": { "type": "Point", "coordinates": [ 124.3915502962, 8.4068250265, 384.0100265 ] } },
{ "type": "Feature", "properties": { "OBJECTID": 44, "newNAME OF BRIDGE": "Hagnaya Bridge ll", "newMUNICIPALITY": "Naawan" }, "bbox": [ 124.3387534632, 8.4193148595, 108.7600265, 124.3387534632, 8.4193148595, 108.7600265 ], "geometry": { "type": "Point", "coordinates": [ 124.3387534632, 8.4193148595, 108.7600265 ] } },
{ "type": "Feature", "properties": { "OBJECTID": 46, "newNAME OF BRIDGE": "Aromahon Bridge", "newMUNICIPALITY": "Laguindingan" }, "bbox": [ 124.4182249642, 8.5649363597, 162.5700265, 124.4182249642, 8.5649363597, 162.5700265 ], "geometry": { "type": "Point", "coordinates": [ 124.4182249642, 8.5649363597, 162.5700265 ] } },
{ "type": "Feature", "properties": { "OBJECTID": 50, "newNAME OF BRIDGE": "Tin-ao Bridge", "newMUNICIPALITY": "Alubijid" }, "bbox": [ 124.4542249642, 8.5596261927, 96.1300265, 124.4542249642, 8.5596261927, 96.1300265 ], "geometry": { "type": "Point", "coordinates": [ 124.4542249642, 8.5596261927, 96.1300265 ] } },
{ "type": "Feature", "properties": { "OBJECTID": 51, "newNAME OF BRIDGE": "Lourdes Bridge", "newMUNICIPALITY": "Alubijid" }, "bbox": [ 124.4379631302, 8.5230896926, 106.1900265, 124.4379631302, 8.5230896926, 106.1900265 ], "geometry": { "type": "Point", "coordinates": [ 124.4379631302, 8.5230896926, 106.1900265 ] } },
{ "type": "Feature", "properties": { "OBJECTID": 53, "newNAME OF BRIDGE": "Salay River Bridge", "newMUNICIPALITY": "Salay" }, "bbox": [ 124.7906331303, 8.8709544711, 75.0767265, 124.7906331303, 8.8709544711, 75.0767265 ], "geometry": { "type": "Point", "coordinates": [ 124.7906331303, 8.8709544711, 75.0767265 ] } },
{ "type": "Feature", "properties": { "OBJECTID": 54, "newNAME OF BRIDGE": "Ane-l Bridge", "newMUNICIPALITY": "Claveria" }, "bbox": [ 124.8696614632, 8.6101038599, 607.7167265, 124.8696614632, 8.6101038599, 607.7167265 ], "geometry": { "type": "Point", "coordinates": [ 124.8696614632, 8.6101038599, 607.7167265 ] } },
{ "type": "Feature", "properties": { "OBJECTID": 56, "newNAME OF BRIDGE": "Sta. Ana Bridge l", "newMUNICIPALITY": "Tagoloan" }, "bbox": [ 124.7949654082, 8.5363096368, 97.9433265, 124.7949654082, 8.5363096368, 97.9433265 ], "geometry": { "type": "Point", "coordinates": [ 124.7949654082, 8.5363096368, 97.9433265 ] } },
{ "type": "Feature", "properties": { "OBJECTID": 57, "newNAME OF BRIDGE": "Sta. Ana Bridge ll", "newMUNICIPALITY": "Tagoloan" }, "bbox": [ 124.7965138522, 8.5364486368, 100.8033265, 124.7965138522, 8.5364486368, 100.8033265 ], "geometry": { "type": "Point", "coordinates": [ 124.7965138522, 8.5364486368, 100.8033265 ] } },
{ "type": "Feature", "properties": { "OBJECTID": 58, "newNAME OF BRIDGE": "Kipalong Bridge", "newMUNICIPALITY": "Claveria" }, "bbox": [ 124.9671439082, 8.673015527, 933.0067265, 124.9671439082, 8.673015527, 933.0067265 ], "geometry": { "type": "Point", "coordinates": [ 124.9671439082, 8.673015527, 933.0067265 ] } },
{ "type": "Feature", "properties": { "OBJECTID": 59, "newNAME OF BRIDGE": "Kabulig Bridge", "newMUNICIPALITY": "Claveria" }, "bbox": [ 124.9829109632, 8.671033804, 953.9167265, 124.9829109632, 8.671033804, 953.9167265 ], "geometry": { "type": "Point", "coordinates": [ 124.9829109632, 8.671033804, 953.9167265 ] } },
{ "type": "Feature", "properties": { "OBJECTID": 60, "newNAME OF BRIDGE": "Damayuhan Bridge", "newMUNICIPALITY": "Magsaysay" }, "bbox": [ 125.1823705754, 9.0492105264, 68.2767265, 125.1823705754, 9.0492105264, 68.2767265 ], "geometry": { "type": "Point", "coordinates": [ 125.1823705754, 9.0492105264, 68.2767265 ] } },
{ "type": "Feature", "properties": { "OBJECTID": 61, "newNAME OF BRIDGE": "Cabubuhan Bridge", "newMUNICIPALITY": "Magsaysay" }, "bbox": [ 125.1893020744, 9.0211385834, 83.8000265, 125.1893020744, 9.0211385834, 83.8000265 ], "geometry": { "type": "Point", "coordinates": [ 125.1893020744, 9.0211385834, 83.8000265 ] } },
{ "type": "Feature", "properties": { "OBJECTID": 64, "newNAME OF BRIDGE": "Musi-Musi Bridge", "newMUNICIPALITY": "Balingasag" }, "bbox": [ 124.7969130193, 8.723424138, 74.8600265, 124.7969130193, 8.723424138, 74.8600265 ], "geometry": { "type": "Point", "coordinates": [ 124.7969130193, 8.723424138, 74.8600265 ] } },
{ "type": "Feature", "properties": { "OBJECTID": 65, "newNAME OF BRIDGE": "Umagos Bridge", "newMUNICIPALITY": "Lagonglong" }, "bbox": [ 124.8033914083, 8.808499804, 115.0000265, 124.8033914083, 8.808499804, 115.0000265 ], "geometry": { "type": "Point", "coordinates": [ 124.8033914083, 8.808499804, 115.0000265 ] } }
]
}
